OBJECT_NAME,OBJECT_ID,EPOCH,MEAN_MOTION,ECCENTRICITY,INCLINATION,RA_OF_ASC_NODE,ARG_OF_PERICENTER,MEAN_ANOMALY,EPHEMERIS_TYPE,CLASSIFICATION_TYPE,NORAD_CAT_ID,ELEMENT_SET_NO,REV_AT_EPOCH,BSTAR,MEAN_MOTION_DOT,MEAN_MOTION_DDOT
STARLINK-37736,2026-115R,2026-06-07T19:02:26.734272,15.80894974,.0000796,97.2842,175.7568,144.6094,215.5227,0,U,69226,999,320,.99562E-3,.195606E-2,0
STARLINK-37737,2026-115S,2026-06-07T18:59:34.619424,15.80895184,.0000849,97.2840,175.7589,115.5631,244.5725,0,U,69227,999,320,.10575E-2,.208084E-2,0
STARLINK-37618,2026-115T,2026-06-07T18:00:04.999104,15.80852351,.0001485,97.2849,175.7254,93.8221,52.1070,0,U,69228,999,317,-.96891E-4,-.18693E-3,0
STARLINK-37679,2026-115U,2026-06-07T18:00:04.999104,15.80850595,.0001487,97.2845,175.7216,95.4526,42.0763,0,U,69229,999,317,-.80583E-4,-.15575E-3,0
STARLINK-37746,2026-115V,2026-06-07T18:58:39.204192,15.80932059,.0001201,97.2841,175.7599,111.7852,248.3544,0,U,69230,999,320,.14813E-2,.294957E-2,0
STARLINK-37557,2026-115W,2026-06-07T18:00:04.999104,15.81113883,.0001771,97.2851,175.7251,105.6451,41.3001,0,U,69231,999,317,-.40795E-2,-.729561E-2,0
STARLINK-37745,2026-115X,2026-06-07T18:00:04.999104,15.80830792,.0001357,97.2844,175.7360,92.5635,77.3609,0,U,69232,999,317,.28381E-4,.5301E-4,0
STARLINK-37739,2026-115Y,2026-06-07T17:24:04.867776,15.80899711,.0001146,97.2842,175.6964,125.6270,234.5105,0,U,69233,999,319,.10933E-2,.215354E-2,0
STARLINK-37755,2026-115Z,2026-06-07T18:00:04.999104,15.75204679,.0001659,97.2855,175.7134,105.1992,9.9900,0,U,69234,999,317,-.48867E-4,-.7417E-4,0
TJS-24,2026-116A,2026-06-07T21:30:51.273792,1.00271445,.0000766,0.0294,245.9540,172.5862,250.7789,0,U,69235,999,13,0,-.216E-5,0
STARLINK-37665,2026-117A,2026-06-07T18:00:04.999104,15.85095756,.0000915,53.1582,291.0054,58.6957,188.4417,0,U,69238,999,265,-.94925E-2,-.1987254E-1,0
STARLINK-37558,2026-117B,2026-06-07T18:00:04.999104,15.85057045,.0001092,53.1581,290.9938,66.5116,186.2634,0,U,69239,999,265,-.98463E-2,-.2047745E-1,0
STARLINK-37680,2026-117C,2026-06-07T18:00:04.999104,15.85366295,.0001155,53.1581,290.9781,65.1444,195.0421,0,U,69240,999,264,-.97073E-2,-.2049443E-1,0
STARLINK-37742,2026-117D,2026-06-07T18:00:04.999104,15.85947171,.0000884,53.1579,290.9608,47.2764,221.2360,0,U,69241,999,265,-.92004E-2,-.2005364E-1,0
STARLINK-37718,2026-117E,2026-06-07T18:00:04.999104,15.86156534,.0001081,53.1578,290.9475,66.7120,208.2113,0,U,69242,999,264,-.91989E-2,-.2023242E-1,0
STARLINK-37735,2026-117F,2026-06-07T18:00:04.999104,15.85779890,.0000832,53.1577,290.9433,52.3710,224.5721,0,U,69243,999,265,-.97386E-2,-.2090821E-1,0
STARLINK-37757,2026-117G,2026-06-07T18:00:04.999104,15.86459212,.0000885,53.1576,290.9196,55.6726,232.5388,0,U,69244,999,265,-.91555E-2,-.2040974E-1,0
STARLINK-37767,2026-117H,2026-06-07T18:00:04.999104,15.87399120,.0000875,53.1571,290.8770,53.6019,255.2643,0,U,69245,999,265,-.88124E-2,-.2056209E-1,0
STARLINK-35759,2026-117J,2026-06-07T18:00:04.999104,15.87417857,.0000763,53.1572,290.8686,68.6511,244.1315,0,U,69246,999,270,-.88683E-2,-.2068956E-1,0
STARLINK-37238,2026-117K,2026-06-07T18:00:04.999104,15.88688522,.0000892,53.1571,290.8297,57.9779,273.3555,0,U,69247,999,265,-.79903E-2,-.1998703E-1,0
STARLINK-37412,2026-117L,2026-06-07T18:00:04.999104,15.89385655,.0000742,53.1570,290.7981,60.1350,286.6312,0,U,69248,999,272,-.78164E-2,-.2022098E-1,0
STARLINK-37398,2026-117M,2026-06-07T18:00:04.999104,15.89321459,.000083,53.1568,290.7919,54.5938,294.8971,0,U,69249,999,272,-.79136E-2,-.2038084E-1,0
STARLINK-37499,2026-117N,2026-06-07T18:00:04.999104,15.89556586,.0000829,53.1569,290.7792,65.4426,290.2908,0,U,69250,999,272,-.77933E-2,-.2032334E-1,0
STARLINK-37489,2026-117P,2026-06-07T18:00:04.999104,15.89810822,.000081,53.1570,290.7613,57.3925,306.8831,0,U,69251,999,272,-.76866E-2,-.2031057E-1,0
STARLINK-37434,2026-117Q,2026-06-07T18:00:04.999104,15.90602726,.0001014,53.1567,290.7382,36.8641,338.3622,0,U,69252,999,265,-.72238E-2,-.1947734E-1,0
STARLINK-37368,2026-117R,2026-06-07T18:00:04.999104,15.92156124,.0001076,53.1565,290.6861,41.4228,358.9713,0,U,69253,999,272,-.64173E-2,-.2179543E-1,.12805E-2
STARLINK-37517,2026-117S,2026-06-07T18:00:04.999104,15.92364191,.0000917,53.1566,290.6752,50.1348,355.7820,0,U,69254,999,272,-.63216E-2,-.2170476E-1,.12732E-2
STARLINK-37378,2026-117T,2026-06-07T18:00:04.999104,15.92256374,.0001066,53.1566,290.6671,34.3655,15.1749,0,U,69255,999,264,-.65021E-2,-.2219401E-1,.13266E-2
STARLINK-37396,2026-117U,2026-06-07T18:00:04.999104,15.92663415,.0001056,53.1564,290.6442,35.5193,24.8053,0,U,69256,999,272,-.64139E-2,-.2236054E-1,.13512E-2
