STARLINK-37736          
1 69226U 26115R   26158.79336498  .00195606  00000+0  99562-3 0  9991
2 69226  97.2842 175.7568 0000796 144.6094 215.5227 15.80894974  3202
STARLINK-37737          
1 69227U 26115S   26158.79137291  .00208084  00000+0  10575-2 0  9993
2 69227  97.2840 175.7589 0000849 115.5631 244.5725 15.80895184  3206
STARLINK-37618          
1 69228U 26115T   26158.75005786 -.00018693  00000+0 -96891-4 0  9997
2 69228  97.2849 175.7254 0001485  93.8221  52.1070 15.80852351  3176
STARLINK-37679          
1 69229U 26115U   26158.75005786 -.00015575  00000+0 -80583-4 0  9995
2 69229  97.2845 175.7216 0001487  95.4526  42.0763 15.80850595  3174
STARLINK-37746          
1 69230U 26115V   26158.79073153  .00294957  00000+0  14813-2 0  9996
2 69230  97.2841 175.7599 0001201 111.7852 248.3544 15.80932059  3202
STARLINK-37557          
1 69231U 26115W   26158.75005786 -.00729561  00000+0 -40795-2 0  9994
2 69231  97.2851 175.7251 0001771 105.6451  41.3001 15.81113883  3170
STARLINK-37745          
1 69232U 26115X   26158.75005786  .00005301  00000+0  28381-4 0  9991
2 69232  97.2844 175.7360 0001357  92.5635  77.3609 15.80830792  3179
STARLINK-37739          
1 69233U 26115Y   26158.72505634  .00215354  00000+0  10933-2 0  9999
2 69233  97.2842 175.6964 0001146 125.6270 234.5105 15.80899711  3192
STARLINK-37755          
1 69234U 26115Z   26158.75005786 -.00007417  00000+0 -48867-4 0  9996
2 69234  97.2855 175.7134 0001659 105.1992   9.9900 15.75204679  3172
TJS-24                  
1 69235U 26116A   26158.89642678 -.00000216  00000+0  00000+0 0  9991
2 69235   0.0294 245.9540 0000766 172.5862 250.7789  1.00271445   137
STARLINK-37665          
1 69238U 26117A   26158.75005786 -.01987254  00000+0 -94925-2 0  9993
2 69238  53.1582 291.0054 0000915  58.6957 188.4417 15.85095756  2657
STARLINK-37558          
1 69239U 26117B   26158.75005786 -.02047745  00000+0 -98463-2 0  9998
2 69239  53.1581 290.9938 0001092  66.5116 186.2634 15.85057045  2654
STARLINK-37680          
1 69240U 26117C   26158.75005786 -.02049443  00000+0 -97073-2 0  9993
2 69240  53.1581 290.9781 0001155  65.1444 195.0421 15.85366295  2642
STARLINK-37742          
1 69241U 26117D   26158.75005786 -.02005364  00000+0 -92004-2 0  9997
2 69241  53.1579 290.9608 0000884  47.2764 221.2360 15.85947171  2655
STARLINK-37718          
1 69242U 26117E   26158.75005786 -.02023242  00000+0 -91989-2 0  9994
2 69242  53.1578 290.9475 0001081  66.7120 208.2113 15.86156534  2645
STARLINK-37735          
1 69243U 26117F   26158.75005786 -.02090821  00000+0 -97386-2 0  9999
2 69243  53.1577 290.9433 0000832  52.3710 224.5721 15.85779890  2650
STARLINK-37757          
1 69244U 26117G   26158.75005786 -.02040974  00000+0 -91555-2 0  9996
2 69244  53.1576 290.9196 0000885  55.6726 232.5388 15.86459212  2659
STARLINK-37767          
1 69245U 26117H   26158.75005786 -.02056209  00000+0 -88124-2 0  9993
2 69245  53.1571 290.8770 0000875  53.6019 255.2643 15.87399120  2652
STARLINK-35759          
1 69246U 26117J   26158.75005786 -.02068956  00000+0 -88683-2 0  9996
2 69246  53.1572 290.8686 0000763  68.6511 244.1315 15.87417857  2706
STARLINK-37238          
1 69247U 26117K   26158.75005786 -.01998703  00000+0 -79903-2 0  9993
2 69247  53.1571 290.8297 0000892  57.9779 273.3555 15.88688522  2658
STARLINK-37412          
1 69248U 26117L   26158.75005786 -.02022098  00000+0 -78164-2 0  9998
2 69248  53.1570 290.7981 0000742  60.1350 286.6312 15.89385655  2720
STARLINK-37398          
1 69249U 26117M   26158.75005786 -.02038084  00000+0 -79136-2 0  9991
2 69249  53.1568 290.7919 0000830  54.5938 294.8971 15.89321459  2720
STARLINK-37499          
1 69250U 26117N   26158.75005786 -.02032334  00000+0 -77933-2 0  9998
2 69250  53.1569 290.7792 0000829  65.4426 290.2908 15.89556586  2724
STARLINK-37489          
1 69251U 26117P   26158.75005786 -.02031057  00000+0 -76866-2 0  9994
2 69251  53.1570 290.7613 0000810  57.3925 306.8831 15.89810822  2728
STARLINK-37434          
1 69252U 26117Q   26158.75005786 -.01947734  00000+0 -72238-2 0  9991
2 69252  53.1567 290.7382 0001014  36.8641 338.3622 15.90602726  2656
STARLINK-37368          
1 69253U 26117R   26158.75005786 -.02179543  12805-2 -64173-2 0  9996
2 69253  53.1565 290.6861 0001076  41.4228 358.9713 15.92156124  2722
STARLINK-37517          
1 69254U 26117S   26158.75005786 -.02170476  12732-2 -63216-2 0  9999
2 69254  53.1566 290.6752 0000917  50.1348 355.7820 15.92364191  2725
STARLINK-37378          
1 69255U 26117T   26158.75005786 -.02219401  13266-2 -65021-2 0  9991
2 69255  53.1566 290.6671 0001066  34.3655  15.1749 15.92256374  2648
STARLINK-37396          
1 69256U 26117U   26158.75005786 -.02236054  13512-2 -64139-2 0  9998
2 69256  53.1564 290.6442 0001056  35.5193  24.8053 15.92663415  2724
